CTC1_L_00501016-05
1 46742U 25625FU  26037.47807870  .00000000  00000+0  00000-0 0  9991
2 46742 101.3000 180.0000 0000000   0.0000 270.0000 12.41559219    18
CTC1_L_00501016-06
1 46743U 26650EZ  26037.47807870  .00000000  00000+0  00000-0 0  9991
2 46743 101.3000 180.0000 0000000   0.0000 315.0000 12.41559219    19
CTC1_L_00501016-07
1 46744U 22896VF  26037.47807870  .00000000  00000+0  00000-0 0  9990
2 46744 101.3000 180.0000 0000000   0.0000   0.0000 12.41559219    11
CTC1_L_00501016-08
1 46745U 26377EY  26037.47807870  .00000000  00000+0  00000-0 0  9999
2 46745 101.3000 180.0000 0000000   0.0000  45.0000 12.41559219    11
CTC1_L_00501017-01
1 46746U 24297SV  26037.47807870  .00000000  00000+0  00000-0 0  9999
2 46746 101.3000 192.0000 0000000   0.0000  96.0000 12.41559219    11
CTC1_L_00501017-02
1 46747U 26768RZ  26037.47807870  .00000000  00000+0  00000-0 0  9995
2 46747 101.3000 192.0000 0000000   0.0000 141.0000 12.41559219    13
CTC1_L_00501017-03
1 46748U 22434NU  26037.47807870  .00000000  00000+0  00000-0 0  9992
2 46748 101.3000 192.0000 0000000   0.0000 186.0000 12.41559219    13
CTC1_L_00501017-04
1 46749U 23528SA  26037.47807870  .00000000  00000+0  00000-0 0  9998
2 46749 101.3000 192.0000 0000000   0.0000 231.0000 12.41559219    15
CTC1_L_00501017-05
1 46750U 22681TT  26037.47807870  .00000000  00000+0  00000-0 0  9999
2 46750 101.3000 192.0000 0000000   0.0000 276.0000 12.41559219    16
CTC1_L_00501017-06
1 46751U 24927DJ  26037.47807870  .00000000  00000+0  00000-0 0  9995
2 46751 101.3000 192.0000 0000000   0.0000 321.0000 12.41559219    18
CTC1_L_00501017-07
1 46752U 26827JG  26037.47807870  .00000000  00000+0  00000-0 0  9997
2 46752 101.3000 192.0000 0000000   0.0000   6.0000 12.41559219    19
CTC1_L_00501017-08
1 46753U 26161ZH  26037.47807870  .00000000  00000+0  00000-0 0  9999
2 46753 101.3000 192.0000 0000000   0.0000  51.0000 12.41559219    10
CTC1_L_00501018-01
1 46754U 23698K   26037.47807870  .00000000  00000+0  00000-0 0  9992
2 46754 101.3000 204.0000 0000000   0.0000 102.0000 12.41559219    12
CTC1_L_00501018-02
1 46755U 23016BZ  26037.47807870  .00000000  00000+0  00000-0 0  9997
2 46755 101.3000 204.0000 0000000   0.0000 147.0000 12.41559219    12
CTC1_L_00501018-03
1 46756U 24761CJ  26037.47807870  .00000000  00000+0  00000-0 0  9996
2 46756 101.3000 204.0000 0000000   0.0000 192.0000 12.41559219    13
CTC1_L_00501018-04
1 46757U 23376SZ  26037.47807870  .00000000  00000+0  00000-0 0  9998
2 46757 101.3000 204.0000 0000000   0.0000 237.0000 12.41559219    14
CTC1_L_00501018-05
1 46758U 24594VQ  26037.47807870  .00000000  00000+0  00000-0 0  9992
2 46758 101.3000 204.0000 0000000   0.0000 282.0000 12.41559219    15
CTC1_L_00501018-06
1 46759U 22711CX  26037.47807870  .00000000  00000+0  00000-0 0  9992
2 46759 101.3000 204.0000 0000000   0.0000 327.0000 12.41559219    16
CTC1_L_00501018-07
1 46760U 24049KP  26037.47807870  .00000000  00000+0  00000-0 0  9990
2 46760 101.3000 204.0000 0000000   0.0000  12.0000 12.41559219    19
CTC1_L_00501018-08
1 46761U 25342ZK  26037.47807870  .00000000  00000+0  00000-0 0  9998
2 46761 101.3000 204.0000 0000000   0.0000  57.0000 12.41559219    19
CTC1_L_00501019-01
1 46762U 26760GV  26037.47807870  .00000000  00000+0  00000-0 0  9994
2 46762 101.3000 216.0000 0000000   0.0000 108.0000 12.41559219    10
CTC1_L_00501019-02
1 46763U 23938SE  26037.47807870  .00000000  00000+0  00000-0 0  9999
2 46763 101.3000 216.0000 0000000   0.0000 153.0000 12.41559219    11
CTC1_L_00501019-03
1 46764U 25886TR  26037.47807870  .00000000  00000+0  00000-0 0  9994
2 46764 101.3000 216.0000 0000000   0.0000 198.0000 12.41559219    11
CTC1_L_00501019-04
1 46765U 24585GL  26037.47807870  .00000000  00000+0  00000-0 0  9990
2 46765 101.3000 216.0000 0000000   0.0000 243.0000 12.41559219    13
CTC1_L_00501019-05
1 46766U 22307EA  26037.47807870  .00000000  00000+0  00000-0 0  9991
2 46766 101.3000 216.0000 0000000   0.0000 288.0000 12.41559219    13
CTC1_L_00501019-06
1 46767U 26496BR  26037.47807870  .00000000  00000+0  00000-0 0  9995
2 46767 101.3000 216.0000 0000000   0.0000 333.0000 12.41559219    15
CTC1_L_00501019-07
1 46768U 23033GV  26037.47807870  .00000000  00000+0  00000-0 0  9990
2 46768 101.3000 216.0000 0000000   0.0000  18.0000 12.41559219    16
CTC1_L_00501019-08
1 46769U 25323HD  26037.47807870  .00000000  00000+0  00000-0 0  9995
2 46769 101.3000 216.0000 0000000   0.0000  63.0000 12.41559219    17
CTC1_L_00501020-01
1 46770U 23639FS  26037.47807870  .00000000  00000+0  00000-0 0  9995
2 46770 101.3000 228.0000 0000000   0.0000 114.0000 12.41559219    19
CTC1_L_00501020-02
1 46771U 23496RK  26037.47807870  .00000000  00000+0  00000-0 0  9997
2 46771 101.3000 228.0000 0000000   0.0000 159.0000 12.41559219    19
CTC1_L_00501020-03
1 46772U 23907LN  26037.47807870  .00000000  00000+0  00000-0 0  9995
2 46772 101.3000 228.0000 0000000   0.0000 204.0000 12.41559219    11
CTC1_L_00501020-04
1 46773U 24483FZ  26037.47807870  .00000000  00000+0  00000-0 0  9996
2 46773 101.3000 228.0000 0000000   0.0000 249.0000 12.41559219    11
CTC1_L_00501020-05
1 46774U 24802EY  26037.47807870  .00000000  00000+0  00000-0 0  9992
2 46774 101.3000 228.0000 0000000   0.0000 294.0000 12.41559219    12
CTC1_L_00501020-06
1 46775U 22016CQ  26037.47807870  .00000000  00000+0  00000-0 0  9998
2 46775 101.3000 228.0000 0000000   0.0000 339.0000 12.41559219    13
CTC1_L_00501020-07
1 46776U 23185BR  26037.47807870  .00000000  00000+0  00000-0 0  9997
2 46776 101.3000 228.0000 0000000   0.0000  24.0000 12.41559219    15
CTC1_L_00501020-08
1 46777U 26356HQ  26037.47807870  .00000000  00000+0  00000-0 0  9991
2 46777 101.3000 228.0000 0000000   0.0000  69.0000 12.41559219    15
CTC1_L_00501021-01
1 46778U 25100XF  26037.47807870  .00000000  00000+0  00000-0 0  9998
2 46778 101.3000 240.0000 0000000   0.0000 120.0000 12.41559219    18
CTC1_L_00501021-02
1 46779U 26013HH  26037.47807870  .00000000  00000+0  00000-0 0  9993
2 46779 101.3000 240.0000 0000000   0.0000 165.0000 12.41559219    18
CTC1_L_00501021-03
1 46780U 23845GP  26037.47807870  .00000000  00000+0  00000-0 0  9995
2 46780 101.3000 240.0000 0000000   0.0000 210.0000 12.41559219    11
CTC1_L_00501021-04
1 46781U 26214QS  26037.47807870  .00000000  00000+0  00000-0 0  9999
2 46781 101.3000 240.0000 0000000   0.0000 255.0000 12.41559219    11
CTC1_L_00501021-05
1 46782U 23149LZ  26037.47807870  .00000000  00000+0  00000-0 0  9994
2 46782 101.3000 240.0000 0000000   0.0000 300.0000 12.41559219    13
CTC1_L_00501021-06
1 46783U 23889YZ  26037.47807870  .00000000  00000+0  00000-0 0  9996
2 46783 101.3000 240.0000 0000000   0.0000 345.0000 12.41559219    13
CTC1_L_00501021-07
1 46784U 22939JM  26037.47807870  .00000000  00000+0  00000-0 0  9992
2 46784 101.3000 240.0000 0000000   0.0000  30.0000 12.41559219    15
CTC1_L_00501021-08
1 46785U 24553TF  26037.47807870  .00000000  00000+0  00000-0 0  9997
2 46785 101.3000 240.0000 0000000   0.0000  75.0000 12.41559219    15
CTC1_L_00501022-01
1 46786U 22176AO  26037.47807870  .00000000  00000+0  00000-0 0  9997
2 46786 101.3000 252.0000 0000000   0.0000 126.0000 12.41559219    16
CTC1_L_00501022-02
1 46787U 26289YH  26037.47807870  .00000000  00000+0  00000-0 0  9997
2 46787 101.3000 252.0000 0000000   0.0000 171.0000 12.41559219    17
CTC1_L_00501022-03
1 46788U 24857NL  26037.47807870  .00000000  00000+0  00000-0 0  9997
2 46788 101.3000 252.0000 0000000   0.0000 216.0000 12.41559219    18
CTC1_L_00501022-04
1 46789U 25739VO  26037.47807870  .00000000  00000+0  00000-0 0  9998
2 46789 101.3000 252.0000 0000000   0.0000 261.0000 12.41559219    19
CTC1_L_00501022-05
1 46790U 24605KA  26037.47807870  .00000000  00000+0  00000-0 0  9991
2 46790 101.3000 252.0000 0000000   0.0000 306.0000 12.41559219    11
CTC1_L_00501022-06
1 46791U 22124IZ  26037.47807870  .00000000  00000+0  00000-0 0  9996
2 46791 101.3000 252.0000 0000000   0.0000 351.0000 12.41559219    12
CTC1_L_00501022-07
1 46792U 24584DB  26037.47807870  .00000000  00000+0  00000-0 0  9999
2 46792 101.3000 252.0000 0000000   0.0000  36.0000 12.41559219    13
CTC1_L_00501022-08
1 46793U 23706CP  26037.47807870  .00000000  00000+0  00000-0 0  9995
2 46793 101.3000 252.0000 0000000   0.0000  81.0000 12.41559219    14
CTC1_L_00501023-01
1 46794U 24548OI  26037.47807870  .00000000  00000+0  00000-0 0  9991
2 46794 101.3000 264.0000 0000000   0.0000 132.0000 12.41559219    15
CTC1_L_00501023-02
1 46795U 25315WW  26037.47807870  .00000000  00000+0  00000-0 0  9995
2 46795 101.3000 264.0000 0000000   0.0000 177.0000 12.41559219    15
CTC1_L_00501023-03
1 46796U 23095QR  26037.47807870  .00000000  00000+0  00000-0 0  9999
2 46796 101.3000 264.0000 0000000   0.0000 222.0000 12.41559219    17
CTC1_L_00501023-04
1 46797U 26531ZK  26037.47807870  .00000000  00000+0  00000-0 0  9998
2 46797 101.3000 264.0000 0000000   0.0000 267.0000 12.41559219    17
CTC1_L_00501023-05
1 46798U 24867KK  26037.47807870  .00000000  00000+0  00000-0 0  9999
2 46798 101.3000 264.0000 0000000   0.0000 312.0000 12.41559219    19
CTC1_L_00501023-06
1 46799U 22362F   26037.47807870  .00000000  00000+0  00000-0 0  9998
2 46799 101.3000 264.0000 0000000   0.0000 357.0000 12.41559219    19
CTC1_L_00501023-07
1 46800U 25837WT  26037.47807870  .00000000  00000+0  00000-0 0  9991
2 46800 101.3000 264.0000 0000000   0.0000  42.0000 12.41559219    13
CTC1_L_00501023-08
1 46801U 24178KE  26037.47807870  .00000000  00000+0  00000-0 0  9999
2 46801 101.3000 264.0000 0000000   0.0000  87.0000 12.41559219    13
CTC1_L_00501024-01
1 46802U 24781XA  26037.47807870  .00000000  00000+0  00000-0 0  9990
2 46802 101.3000 276.0000 0000000   0.0000 138.0000 12.41559219    14
CTC1_L_00501024-02
1 46803U 25138VS  26037.47807870  .00000000  00000+0  00000-0 0  9998
2 46803 101.3000 276.0000 0000000   0.0000 183.0000 12.41559219    15
